KUIPER-00027            
1 63740U 25088S   26188.25577383 -.00000741  00000+0 -68266-4 0  9993
2 63740  51.9015 286.8788 0000599  81.6867 278.4163 14.79924452 65323
KUIPER-00028            
1 63741U 25088T   26188.29223273 -.00000887  00000+0 -87416-4 0  9993
2 63741  51.9015 284.1678 0000672 112.1965 247.9069 14.79925639 65777
KUIPER-00029            
1 63742U 25088U   26187.52538308 -.00000827  00000+0 -79544-4 0  9994
2 63742  51.9015 286.2430 0000287 170.0554 190.0415 14.79906344 65209
KUIPER-00030            
1 63743U 25088V   26188.30712283 -.00000270  00000+0 -63979-5 0  9996
2 63743  51.9021 301.6101 0000673 112.9416 247.1618 14.79923610 65344
KUIPER-00031            
1 63744U 25088W   26188.32790658  .00002482  00000+0  38332-3 0  9999
2 63744  51.9009 286.2436 0002025 179.1437 180.9528 14.76529334 65279
KUIPER-00032            
1 63745U 25088X   26188.33778889  .00011108  00000+0  27650-3 0  9999
2 63745  51.8660 164.0884 0003403 180.1828 179.9159 15.40764051 67975
KUIPER-00033            
1 63746U 25088Y   26188.39223773  .00000969  00000+0  15619-3 0  9998
2 63746  51.9017 316.2571 0000749 115.5087 244.5953 14.79917848 65341
KUIPER-00034            
1 63747U 25088Z   26188.29760820 -.00003950  00000+0 -48939-3 0  9993
2 63747  51.9008 279.2069 0001340 105.3354 254.7756 14.79933468 65535
KUIPER-00035            
1 63748U 25088AA  26188.33819471 -.00000156  00000+0  85350-5 0  9990
2 63748  51.9017 304.0044 0000725 114.5492 245.5546 14.79923375 65246
KUIPER-00037            
1 63749U 25088AB  26188.33111185  .00000185  00000+0  53325-4 0  9995
2 63749  51.9016 302.8921 0000497  94.2400 265.8619 14.79923653 66049
KUIPER-00038            
1 63750U 25088AC  26188.25307936 -.00000241  00000+0 -25842-5 0  9998
2 63750  51.9044 289.4043 0000658  84.0209 276.0829 14.79925691 65220
KUIPER-00039            
1 64500U 25134A   26187.88799115 -.00001140  00000+0 -12064-3 0  9995
2 64500  51.9012  66.0147 0000688 100.2724 259.8316 14.79923806 57721
KUIPER-00040            
1 64501U 25134B   26187.91097875 -.00001914  00000+0 -22217-3 0  9994
2 64501  51.8973  75.9945 0000787  98.6206 261.4845 14.79925563 57589
KUIPER-00041            
1 64502U 25134C   26188.07709881 -.00000037  00000+0  24100-4 0  9998
2 64502  51.8990  77.6449 0000707  98.4730 261.6313 14.79926140 57572
KUIPER-00042            
1 64503U 25134D   26188.11625047 -.00002179  00000+0 -25702-3 0  9993
2 64503  51.8981  72.4472 0000725 105.8363 254.2679 14.79920317 57659
KUIPER-00043            
1 64504U 25134E   26188.05681095 -.00000308  00000+0 -11369-4 0  9999
2 64504  51.9013  65.2097 0000746  90.8422 269.2626 14.79926022 57750
